0 SL-8 R/B
1 09510U 76108B   13282.12162091  .00000099  00000-0  84622-4 0  5344
2 09510 082.9349 308.1671 0025599 000.7295 359.3895 13.77409102856310
0 SL-8 R/B
1 09510U 76108B   13283.13859330  .00000105  00000-0  90626-4 0  5355
2 09510 082.9348 307.4098 0025547 357.8082 002.2959 13.77409192856456
0 SL-8 R/B
1 09510U 76108B   13284.44612904  .00000123  00000-0  10808-3 0  5368
2 09510 082.9345 306.4361 0025460 354.0989 005.9864 13.77409445856630
0 SL-8 R/B
1 09510U 76108B   13285.46310129  .00000107  00000-0  92581-4 0  5377
2 09510 082.9343 305.6787 0025393 351.1850 008.8858 13.77409645856773
0 SL-8 R/B
1 09510U 76108B   13286.48007345  .00000106  00000-0  90993-4 0  5388
2 09510 082.9342 304.9214 0025334 348.2771 011.7793 13.77409926856912
0 SL-8 R/B
1 09510U 76108B   13287.49704553  .00000100  00000-0  85642-4 0  5395
2 09510 082.9340 304.1639 0025267 345.3576 014.6846 13.77410256857054
0 SL-8 R/B
1 09510U 76108B   13288.58665831  .00000083  00000-0  68634-4 0  5405
2 09510 082.9340 303.3522 0025218 342.2274 017.7999 13.77410491857204
0 SL-8 R/B
1 09510U 76108B   13290.11211575  .00000074  00000-0  58796-4 0  5418
2 09510 082.9340 302.2159 0025153 337.8144 022.1922 13.77410845857414
0 SL-8 R/B
1 09510U 76108B   13291.12908708  .00000082  00000-0  66975-4 0  5429
2 09510 082.9340 301.4582 0025098 334.8781 025.1154 13.77411071857554
0 SL-8 R/B
1 09510U 76108B   13292.14605819  .00000105  00000-0  90675-4 0  5430
2 09510 082.9342 300.7007 0025023 331.9214 028.0592 13.77411250857699
0 SL-8 R/B
1 09510U 76108B   13293.16302931  .00000128  00000-0  11386-3 0  5449
2 09510 082.9343 299.9433 0024988 328.9734 030.9946 13.77411455857832
0 SL-8 R/B
1 09510U 76108B   13294.47056345  .00000157  00000-0  14276-3 0  5453
2 09510 082.9344 298.9694 0024923 325.1474 034.8050 13.77411874858015
0 SL-8 R/B
1 09510U 76108B   13295.48753444  .00000166  00000-0  15171-3 0  5465
2 09510 082.9344 298.2121 0024927 322.2824 037.6585 13.77412029858156
